1 08820U 76039A   03201.77985878  .00000014  00000-0  10000-3 0  9458
2 08820 109.8033 193.0947 0044515 294.0109  65.5854  6.38664407379209
